{
  "type": "FeatureCollection",
  "features": [
    {
      "type": "Feature",
      "properties": {
        "norad_id": 47059,
        "name": "COSMOS 2251 DEB",
        "group": "cosmos-2251-debris",
        "lat": 19.31748895301058,
        "lon": 46.025013526001295,
        "alt_km": 530.5270530667785,
        "timestamp": "2025-12-14T11:29:50.459020+00:00",
        "meta_object_name": "COSMOS 2251 DEB",
        "meta_object_id": "1993-036BXP",
        "meta_epoch": "2025-12-12T01:57:33.172416",
        "meta_mean_motion": 15.12724951,
        "meta_eccentricity": 0.00125007,
        "meta_inclination": 73.9813,
        "meta_ra_of_asc_node": 236.7898,
        "meta_arg_of_pericenter": 50.1346,
        "meta_mean_anomaly": 17.873,
        "meta_ephemeris_type": 0,
        "meta_classification_type": "U",
        "meta_norad_cat_id": 47059,
        "meta_element_set_no": 999,
        "meta_rev_at_epoch": 8295,
        "meta_bstar": 0.0036258701,
        "meta_mean_motion_dot": 0.00064189,
        "meta_mean_motion_ddot": 0,
        "tle_line1": "1 47059U 93036BXP 25346.08163394  .00064189  00000+0  36259-2 0  9994",
        "tle_line2": "2 47059  73.9813 236.7898 0012500  50.1346  17.8730 15.12724951 82955"
      },
      "geometry": {
        "type": "Point",
        "coordinates": [
          46.025013526001295,
          19.31748895301058
        ]
      }
    },
    {
      "type": "Feature",
      "properties": {
        "norad_id": 47062,
        "name": "COSMOS 2251 DEB",
        "group": "cosmos-2251-debris",
        "lat": 33.43738874397293,
        "lon": 86.1684832694836,
        "alt_km": 1220.54905272635,
        "timestamp": "2025-12-14T11:29:50.459031+00:00",
        "meta_object_name": "COSMOS 2251 DEB",
        "meta_object_id": "1993-036BXS",
        "meta_epoch": "2025-12-12T12:09:44.037216",
        "meta_mean_motion": 13.7194537,
        "meta_eccentricity": 0.03234078,
        "meta_inclination": 74.0838,
        "meta_ra_of_asc_node": 78.5596,
        "meta_arg_of_pericenter": 204.4264,
        "meta_mean_anomaly": 174.0421,
        "meta_ephemeris_type": 0,
        "meta_classification_type": "U",
        "meta_norad_cat_id": 47062,
        "meta_element_set_no": 999,
        "meta_rev_at_epoch": 55599,
        "meta_bstar": 0.0024049368,
        "meta_mean_motion_dot": 3.146e-05,
        "meta_mean_motion_ddot": 0,
        "tle_line1": "1 47062U 93036BXS 25346.50675969  .00003146  00000+0  24049-2 0  9991",
        "tle_line2": "2 47062  74.0838  78.5596 0323407 204.4264 174.0421 13.71945370555994"
      },
      "geometry": {
        "type": "Point",
        "coordinates": [
          86.1684832694836,
          33.43738874397293
        ]
      }
    },
    {
      "type": "Feature",
      "properties": {
        "norad_id": 47068,
        "name": "COSMOS 2251 DEB",
        "group": "cosmos-2251-debris",
        "lat": -53.79398375468183,
        "lon": 177.14655287867845,
        "alt_km": 709.4744170919203,
        "timestamp": "2025-12-14T11:29:50.459041+00:00",
        "meta_object_name": "COSMOS 2251 DEB",
        "meta_object_id": "1993-036BXY",
        "meta_epoch": "2025-12-13T07:40:14.809440",
        "meta_mean_motion": 14.53159902,
        "meta_eccentricity": 0.0018301,
        "meta_inclination": 74.0239,
        "meta_ra_of_asc_node": 202.3736,
        "meta_arg_of_pericenter": 289.4484,
        "meta_mean_anomaly": 70.47,
        "meta_ephemeris_type": 0,
        "meta_classification_type": "U",
        "meta_norad_cat_id": 47068,
        "meta_element_set_no": 999,
        "meta_rev_at_epoch": 61765,
        "meta_bstar": 0.0013850784,
        "meta_mean_motion_dot": 5.724e-05,
        "meta_mean_motion_ddot": 0,
        "tle_line1": "1 47068U 93036BXY 25347.31961585  .00005724  00000+0  13851-2 0  9992",
        "tle_line2": "2 47068  74.0239 202.3736 0018301 289.4484  70.4700 14.53159902617659"
      },
      "geometry": {
        "type": "Point",
        "coordinates": [
          177.14655287867845,
          -53.79398375468183
        ]
      }
    },
    {
      "type": "Feature",
      "properties": {
        "norad_id": 47073,
        "name": "COSMOS 2251 DEB",
        "group": "cosmos-2251-debris",
        "lat": 16.912424769577516,
        "lon": 13.841282950922512,
        "alt_km": 844.1383289529958,
        "timestamp": "2025-12-14T11:29:50.459052+00:00",
        "meta_object_name": "COSMOS 2251 DEB",
        "meta_object_id": "1993-036BYD",
        "meta_epoch": "2025-12-10T22:57:37.610784",
        "meta_mean_motion": 14.04716581,
        "meta_eccentricity": 0.0162103,
        "meta_inclination": 74.0823,
        "meta_ra_of_asc_node": 204.9451,
        "meta_arg_of_pericenter": 243.6176,
        "meta_mean_anomaly": 114.8243,
        "meta_ephemeris_type": 0,
        "meta_classification_type": "U",
        "meta_norad_cat_id": 47073,
        "meta_element_set_no": 999,
        "meta_rev_at_epoch": 60336,
        "meta_bstar": 0.00063847,
        "meta_mean_motion_dot": 1.125e-05,
        "meta_mean_motion_ddot": 0,
        "tle_line1": "1 47073U 93036BYD 25344.95668531  .00001125  00000+0  63847-3 0  9992",
        "tle_line2": "2 47073  74.0823 204.9451 0162103 243.6176 114.8243 14.04716581603362"
      },
      "geometry": {
        "type": "Point",
        "coordinates": [
          13.841282950922512,
          16.912424769577516
        ]
      }
    },
    {
      "type": "Feature",
      "properties": {
        "norad_id": 47074,
        "name": "COSMOS 2251 DEB",
        "group": "cosmos-2251-debris",
        "lat": 28.18213231358986,
        "lon": 116.74328909387785,
        "alt_km": 874.6521744298825,
        "timestamp": "2025-12-14T11:29:50.459062+00:00",
        "meta_object_name": "COSMOS 2251 DEB",
        "meta_object_id": "1993-036BYE",
        "meta_epoch": "2025-12-08T16:49:34.505184",
        "meta_mean_motion": 14.3557053,
        "meta_eccentricity": 0.01448795,
        "meta_inclination": 74.0911,
        "meta_ra_of_asc_node": 316.0985,
        "meta_arg_of_pericenter": 343.8802,
        "meta_mean_anomaly": 196.5757,
        "meta_ephemeris_type": 0,
        "meta_classification_type": "U",
        "meta_norad_cat_id": 47074,
        "meta_element_set_no": 999,
        "meta_rev_at_epoch": 2624,
        "meta_bstar": 0.0031554894,
        "meta_mean_motion_dot": 0.00010228,
        "meta_mean_motion_ddot": 0,
        "tle_line1": "1 47074U 93036BYE 25342.70109381  .00010228  00000+0  31555-2 0  9991",
        "tle_line2": "2 47074  74.0911 316.0985 0144879 343.8802 196.5757 14.35570530 26246"
      },
      "geometry": {
        "type": "Point",
        "coordinates": [
          116.74328909387785,
          28.18213231358986
        ]
      }
    },
    {
      "type": "Feature",
      "properties": {
        "norad_id": 47116,
        "name": "COSMOS 2251 DEB",
        "group": "cosmos-2251-debris",
        "lat": 27.704187704525943,
        "lon": -114.15534106687828,
        "alt_km": 562.8985288601571,
        "timestamp": "2025-12-14T11:29:50.459073+00:00",
        "meta_object_name": "COSMOS 2251 DEB",
        "meta_object_id": "1993-036BYJ",
        "meta_epoch": "2025-12-11T00:06:23.501088",
        "meta_mean_motion": 14.98044349,
        "meta_eccentricity": 0.00215318,
        "meta_inclination": 74.0231,
        "meta_ra_of_asc_node": 244.2359,
        "meta_arg_of_pericenter": 338.282,
        "meta_mean_anomaly": 38.4094,
        "meta_ephemeris_type": 0,
        "meta_classification_type": "U",
        "meta_norad_cat_id": 47116,
        "meta_element_set_no": 999,
        "meta_rev_at_epoch": 59485,
        "meta_bstar": 0.0031113289,
        "meta_mean_motion_dot": 0.0003712,
        "meta_mean_motion_ddot": 0,
        "tle_line1": "1 47116U 93036BYJ 25345.00443867  .00037120  00000+0  31113-2 0  9994",
        "tle_line2": "2 47116  74.0231 244.2359 0021531 338.2820  38.4094 14.98044349594850"
      },
      "geometry": {
        "type": "Point",
        "coordinates": [
          -114.15534106687828,
          27.704187704525943
        ]
      }
    },
    {
      "type": "Feature",
      "properties": {
        "norad_id": 53093,
        "name": "COSMOS 2251 DEB",
        "group": "cosmos-2251-debris",
        "lat": -39.01924611755218,
        "lon": 131.64437154983727,
        "alt_km": 770.6294868021123,
        "timestamp": "2025-12-14T11:29:50.459084+00:00",
        "meta_object_name": "COSMOS 2251 DEB",
        "meta_object_id": "1993-036BYP",
        "meta_epoch": "2025-12-13T07:50:02.246496",
        "meta_mean_motion": 14.41888275,
        "meta_eccentricity": 0.00191833,
        "meta_inclination": 74.0363,
        "meta_ra_of_asc_node": 300.3675,
        "meta_arg_of_pericenter": 17.2671,
        "meta_mean_anomaly": 342.9134,
        "meta_ephemeris_type": 0,
        "meta_classification_type": "U",
        "meta_norad_cat_id": 53093,
        "meta_element_set_no": 999,
        "meta_rev_at_epoch": 17734,
        "meta_bstar": 0.0015030417,
        "meta_mean_motion_dot": 4.907e-05,
        "meta_mean_motion_ddot": 0,
        "tle_line1": "1 53093U 93036BYP 25347.32641489  .00004907  00000+0  15030-2 0  9999",
        "tle_line2": "2 53093  74.0363 300.3675 0019183  17.2671 342.9134 14.41888275177341"
      },
      "geometry": {
        "type": "Point",
        "coordinates": [
          131.64437154983727,
          -39.01924611755218
        ]
      }
    }
  ]
}